{"type":"FeatureCollection","features":[{"type":"Feature","properties":{"name":"بيرزيت","area_m2":12477821},"geometry":{"type":"Polygon","coordinates":[[[35.2175446,31.9882624],[35.2175211,31.9883027],[35.2174694,31.988489],[35.2174153,31.9887704],[35.2173673,31.988756],[35.2173025,31.9887412],[35.2171026,31.988703],[35.217053,31.9889427],[35.2172015,31.9890053],[35.2174688,31.9891173],[35.2177074,31.9892161],[35.2179116,31.9893008],[35.2181309,31.9893913],[35.218217,31.9894309],[35.2181481,31.9895382],[35.2180856,31.9896357],[35.2179721,31.9898179],[35.2178965,31.9899536],[35.2178372,31.9900516],[35.217606,31.9899654],[35.2174556,31.989911],[35.2174329,31.9899607],[35.2174064,31.9900352],[35.2173457,31.9902001],[35.217245,31.9904678],[35.2171809,31.9906357],[35.2171641,31.9906848],[35.2170987,31.9908602],[35.2169998,31.9910029],[35.2169332,31.9910997],[35.2168416,31.9911945],[35.2166727,31.9911719],[35.2165717,31.9914285],[35.216466,31.9916402],[35.2163622,31.9916392],[35.2162862,31.9916738],[35.216238,31.9916692],[35.2161771,31.991661],[35.2160808,31.9916772],[35.2159764,31.9917034],[35.215887,31.9915849],[35.2157997,31.9914801],[35.2156322,31.9914273],[35.2154851,31.9913856],[35.2153294,31.9914161],[35.2150109,31.991444],[35.2148043,31.9914636],[35.2147307,31.9914705],[35.2145271,31.9914892],[35.2144713,31.9915855],[35.2144514,31.9916674],[35.2144036,31.9918637],[35.2143196,31.992195],[35.2142682,31.9923645],[35.2141552,31.9923578],[35.2139713,31.9923334],[35.213773,31.9923084],[35.2136605,31.9922935],[35.2136906,31.9921343],[35.213703,31.9920716],[35.2137195,31.9919811],[35.2137399,31.9918787],[35.2137535,31.991816],[35.2137704,31.9916956],[35.2137771,31.9916218],[35.2137826,31.9915438],[35.2137323,31.9915409],[35.21363,31.9915349],[35.2135406,31.9915406],[35.2135032,31.9916368],[35.2134806,31.9917052],[35.2134471,31.9917869],[35.2134605,31.9918672],[35.2133937,31.9918746],[35.2132293,31.9918926],[35.2131058,31.9919115],[35.2131333,31.9921094],[35.2131581,31.9922558],[35.2130582,31.9922582],[35.2129818,31.9922608],[35.2128623,31.9922605],[35.2128007,31.9922669],[35.2127006,31.9922673],[35.2126056,31.9922642],[35.2124024,31.9922586],[35.2123254,31.9922604],[35.211973,31.9922765],[35.2119575,31.9922191],[35.2119717,31.9921646],[35.2119752,31.9921046],[35.2119952,31.992041],[35.2120009,31.9919509],[35.2120681,31.9917943],[35.2121179,31.9916591],[35.2121478,31.9915659],[35.212034,31.9915092],[35.2119647,31.9914846],[35.2119149,31.9914553],[35.2117686,31.99137],[35.2116272,31.9912973],[35.2115216,31.9912498],[35.2114445,31.9912076],[35.21139,31.9911833],[35.2113296,31.991163],[35.2113141,31.9912186],[35.2112823,31.9912859],[35.2112355,31.9913802],[35.2111893,31.9914474],[35.2111631,31.9915038],[35.2111149,31.9915776],[35.2110566,31.9916779],[35.2110438,31.9917518],[35.211024,31.9918558],[35.2110083,31.9919102],[35.2109699,31.99199],[35.210952,31.9920819],[35.2109527,31.9921699],[35.2109428,31.992459],[35.2109641,31.9925473],[35.2108787,31.9925589],[35.2107597,31.9925953],[35.210697,31.992593],[35.2105989,31.9925513],[35.2104698,31.9925513],[35.2103972,31.9925822],[35.210339,31.9926054],[35.210279,31.9926208],[35.2102347,31.9924899],[35.2101764,31.9922936],[35.2101546,31.992244],[35.2097095,31.9923431],[35.2096037,31.9925222],[35.2093858,31.9928809],[35.2093426,31.9929093],[35.2092359,31.9928746],[35.2090226,31.9928298],[35.2087263,31.9927705],[35.2084224,31.9926881],[35.207976,31.9925637],[35.2078341,31.9925317],[35.2077064,31.9924891],[35.207634,31.992478],[35.2075694,31.9924667],[35.207447,31.9924163],[35.2072823,31.9923391],[35.2071736,31.9922881],[35.2070946,31.9922366],[35.2069833,31.9921856],[35.2068657,31.9921683],[35.2067813,31.9921921],[35.2066982,31.9921682],[35.2066198,31.9921463],[35.206533,31.9921183],[35.2064158,31.992107],[35.2062787,31.9920746],[35.2062182,31.992069],[35.2061083,31.9920835],[35.2060261,31.9920857],[35.2058376,31.9920281],[35.2057771,31.9919964],[35.2057058,31.9919919],[35.20564,31.9919585],[35.2055644,31.9919464],[35.2054959,31.9918404],[35.2054289,31.9918121],[35.2052315,31.9917152],[35.2050339,31.9916258],[35.2048702,31.9915455],[35.2047884,31.9914653],[35.2046685,31.9913503],[35.2045743,31.9912596],[35.2044194,31.9911097],[35.2043221,31.9911335],[35.2042277,31.9911842],[35.2039714,31.9913248],[35.2038706,31.9911784],[35.2037496,31.9909724],[35.2036338,31.9907678],[35.2035788,31.9906695],[35.2035057,31.9905712],[35.2034412,31.9905111],[35.2033898,31.9904572],[35.203323,31.9903857],[35.2032318,31.9903195],[35.2030636,31.9902813],[35.2029784,31.9902877],[35.2025709,31.9903244],[35.2025008,31.9903376],[35.2024322,31.9903285],[35.2022366,31.9902549],[35.2020555,31.9901953],[35.2020097,31.9901289],[35.2018733,31.9901379],[35.2018375,31.9900782],[35.2018196,31.9900269],[35.2017495,31.9900144],[35.2013547,31.9899477],[35.2012862,31.9899366],[35.2012014,31.9900352],[35.2011362,31.9901073],[35.2010905,31.9901503],[35.2010401,31.9902038],[35.2010045,31.9902504],[35.2009294,31.9902268],[35.2005397,31.9901268],[35.2004108,31.9900963],[35.2003551,31.9901831],[35.2003192,31.9902498],[35.2002931,31.9903246],[35.2002669,31.9904093],[35.2002491,31.9904842],[35.2002286,31.9905692],[35.2002358,31.9906476],[35.2002244,31.9907531],[35.2002066,31.9908544],[35.2001996,31.9909401],[35.2001898,31.9910803],[35.200043,31.9911149],[35.1999256,31.9911289],[35.1998539,31.9911358],[35.199893,31.9914352],[35.1999377,31.9917231],[35.199808,31.9917472],[35.1997298,31.9917562],[35.1996394,31.9917493],[35.199543,31.9917245],[35.1994627,31.9917031],[35.1994035,31.9916857],[35.1993146,31.9916754],[35.1992108,31.9916595],[35.1991452,31.9916481],[35.199044,31.9916364],[35.1989681,31.9916744],[35.1988344,31.9916635],[35.1988456,31.9913894],[35.1987578,31.9913702],[35.1986993,31.9913588],[35.1984402,31.99133],[35.1982038,31.9912821],[35.1979312,31.9912398],[35.1976023,31.9911901],[35.1975934,31.9912514],[35.197582,31.9913146],[35.1975686,31.9913759],[35.1975573,31.991466],[35.1975279,31.9915267],[35.1975194,31.9916364],[35.1974608,31.9917383],[35.1973412,31.9918343],[35.1972751,31.9917953],[35.1971902,31.9917621],[35.1971274,31.9916986],[35.197034,31.9916797],[35.1969593,31.9916018],[35.1968712,31.9915237],[35.1967948,31.9914719],[35.1967282,31.9914719],[35.1965716,31.991522],[35.196499,31.9915323],[35.196288,31.9915204],[35.1960917,31.9915256],[35.195974,31.9915455],[35.1958823,31.991572],[35.1957196,31.991622],[35.1956764,31.9915514],[35.1955934,31.9915793],[35.1954912,31.991622],[35.1953876,31.9916706],[35.1952498,31.9917435],[35.1951348,31.99182],[35.1950215,31.9918996],[35.1949851,31.9919481],[35.1949315,31.9920026],[35.194914,31.9920784],[35.1948993,31.9921892],[35.1948776,31.9922724],[35.1948957,31.9924142],[35.1948862,31.9925096],[35.1948929,31.9926023],[35.1948126,31.9926097],[35.1948169,31.9926701],[35.1948289,31.9927516],[35.1948132,31.9928065],[35.1947977,31.9929346],[35.1947856,31.9930597],[35.1947537,31.9931693],[35.1947112,31.9932662],[35.1946495,31.9933605],[35.1946081,31.9934316],[35.1945714,31.9935005],[35.1945566,31.993583],[35.1945215,31.993637],[35.1944652,31.9937191],[35.1944168,31.9938279],[35.1943794,31.9938748],[35.1943171,31.9939609],[35.1942928,31.9940169],[35.1942753,31.9940799],[35.1942233,31.9941517],[35.1941712,31.9942257],[35.1941236,31.994294],[35.1940993,31.9943484],[35.1940844,31.9944064],[35.1940571,31.9944572],[35.1940154,31.9944999],[35.1940006,31.994549],[35.1939783,31.9945977],[35.1936011,31.9944798],[35.1935363,31.9944652],[35.1932942,31.9944412],[35.1932286,31.9944409],[35.193196,31.9943765],[35.193145,31.9943833],[35.1931146,31.9944338],[35.1930505,31.9944787],[35.1930295,31.9945394],[35.1930313,31.9945912],[35.1930577,31.9946816],[35.1930632,31.9948271],[35.1930657,31.9951975],[35.1931192,31.9952347],[35.1931168,31.9952868],[35.1931268,31.9953599],[35.1931442,31.9954531],[35.193171,31.9955909],[35.1931846,31.9956769],[35.1932024,31.9957257],[35.1930255,31.9957634],[35.1928451,31.9958064],[35.1925786,31.9958588],[35.1925341,31.9958177],[35.1924323,31.995743],[35.1923665,31.9956969],[35.192324,31.9956607],[35.1922885,31.9955981],[35.1922603,31.9955193],[35.192341,31.995527],[35.1924177,31.9955056],[35.1924745,31.9954765],[35.1925196,31.9954305],[35.1925467,31.9953745],[35.1925543,31.9953226],[35.1925109,31.9952395],[35.1925386,31.9952077],[35.1925496,31.9951149],[35.1925562,31.9950407],[35.192602,31.9950253],[35.1925742,31.9949211],[35.1925498,31.9948059],[35.1925389,31.9947472],[35.1925343,31.9946518],[35.1925898,31.9946298],[35.1925912,31.994502],[35.1925912,31.9944441],[35.1926054,31.9943223],[35.1926158,31.9942506],[35.192639,31.9941705],[35.1926661,31.9941063],[35.1926957,31.9940036],[35.1927061,31.9939514],[35.1925707,31.9939381],[35.1925565,31.994016],[35.1924353,31.993994],[35.1922663,31.9939623],[35.1922321,31.9940347],[35.1922167,31.9940798],[35.1921999,31.9941531],[35.1920771,31.9941362],[35.1920138,31.9941301],[35.1919465,31.9941075],[35.1919465,31.9940451],[35.1918194,31.9940069],[35.1917053,31.9939596],[35.1915894,31.9939195],[35.1915019,31.9938982],[35.1914132,31.9938733],[35.1912847,31.9938023],[35.1910914,31.9936963],[35.1910094,31.9936533],[35.1908935,31.993805],[35.1908277,31.9938955],[35.191002,31.9939923],[35.1912729,31.9941643],[35.1912375,31.9942279],[35.1911424,31.9942942],[35.1910705,31.9943467],[35.1910069,31.994416],[35.1908506,31.9943181],[35.190635,31.9941527],[35.1905009,31.9940212],[35.1903581,31.9939132],[35.1902379,31.993822],[35.1901366,31.9939039],[35.1900469,31.9939733],[35.1899654,31.9940229],[35.1899077,31.9940518],[35.189829,31.9940046],[35.1897766,31.9939761],[35.1897291,31.9939345],[35.189684,31.9938737],[35.1895871,31.9938377],[35.1894635,31.9937488],[35.189317,31.9936396],[35.1892456,31.9935835],[35.1891851,31.9935553],[35.1891089,31.9935047],[35.1889863,31.993461],[35.1889057,31.9934079],[35.1888241,31.9933635],[35.1887417,31.9933518],[35.1886463,31.9932809],[35.1885649,31.9932107],[35.188409,31.9933283],[35.1881543,31.9934594],[35.1880601,31.9935159],[35.1878094,31.9936427],[35.1876876,31.9935788],[35.1875153,31.9934793],[35.1874472,31.9934364],[35.1873123,31.9934931],[35.1872116,31.9934309],[35.1870143,31.9933179],[35.186959,31.9932902],[35.1868956,31.9932225],[35.1867836,31.9930897],[35.1867414,31.9930455],[35.1866859,31.9929809],[35.1865219,31.9927915],[35.186342,31.9925855],[35.1860602,31.9922687],[35.1860043,31.9921995],[35.1859592,31.99215],[35.1864068,31.9920841],[35.1864814,31.9920671],[35.1864709,31.9918949],[35.1862513,31.9918615],[35.1860026,31.991821],[35.1858123,31.9917898],[35.1856957,31.9917777],[35.1855385,31.9917871],[35.1854142,31.9918103],[35.1852586,31.991871],[35.1850757,31.9919722],[35.185017,31.9920088],[35.1849548,31.992054],[35.1849126,31.9921053],[35.1848962,31.9921661],[35.1848926,31.9922283],[35.1849089,31.9923046],[35.1849364,31.9923829],[35.1850041,31.9925183],[35.1850846,31.9926735],[35.1851248,31.9927669],[35.1851715,31.9928899],[35.1852087,31.9930121],[35.1852325,31.9930883],[35.1851758,31.9931303],[35.1851154,31.9931382],[35.185014,31.9931848],[35.1849174,31.9932673],[35.1847725,31.9932283],[35.1846554,31.9932042],[35.1845329,31.9932221],[35.1843903,31.9930385],[35.1842967,31.9929191],[35.1842146,31.9928164],[35.1841286,31.9927088],[35.1839122,31.9924333],[35.1837184,31.992185],[35.1836805,31.992128],[35.1837981,31.9921153],[35.1842609,31.9920608],[35.1845053,31.9920172],[35.1845187,31.9919527],[35.1845383,31.9918647],[35.1844403,31.9918436],[35.18402,31.9917464],[35.1834007,31.9916063],[35.1828824,31.9914894],[35.1826804,31.9914416],[35.1824861,31.9913976],[35.1824435,31.9913112],[35.1823043,31.9910341],[35.1822189,31.9908612],[35.1821333,31.9906909],[35.182087,31.9905939],[35.1822638,31.990291],[35.1823012,31.9902429],[35.1823315,31.9901621],[35.1824489,31.9898904],[35.1824286,31.9898128],[35.1826642,31.9897418],[35.182758,31.9897146],[35.1828405,31.9896912],[35.1830799,31.9896213],[35.1832742,31.9895669],[35.1832436,31.9895147],[35.1831139,31.989306],[35.1830086,31.9891282],[35.1828853,31.9889267],[35.1828686,31.9888477],[35.1830029,31.9888209],[35.1834167,31.9887405],[35.1834632,31.9886413],[35.1834968,31.9885003],[35.1835283,31.9883718],[35.1835582,31.988264],[35.1835853,31.9881426],[35.1835113,31.988076],[35.1833348,31.9879816],[35.1831866,31.9879012],[35.1836635,31.9878203],[35.1838401,31.9877837],[35.184204,31.9876652],[35.1840557,31.9874702],[35.1846213,31.9873482],[35.1850268,31.9871409],[35.1853514,31.9869657],[35.1854232,31.9871493],[35.1862844,31.987146],[35.1864079,31.9871384],[35.1864642,31.9872054],[35.1866347,31.9873908],[35.1871146,31.987903],[35.1873508,31.9881604],[35.1873921,31.9882052],[35.1875268,31.988338],[35.1879294,31.988721],[35.1880392,31.9885887],[35.1881981,31.9883308],[35.1883557,31.9880646],[35.1884119,31.9879523],[35.1882604,31.9876902],[35.1881457,31.9874939],[35.1881042,31.9874402],[35.1879052,31.9871874],[35.1878614,31.9871351],[35.1877858,31.9869792],[35.1877538,31.9869072],[35.1877075,31.9866984],[35.1876702,31.9865599],[35.1876264,31.9864403],[35.1875758,31.9863716],[35.1875229,31.9863005],[35.1874101,31.9860787],[35.1872123,31.9861243],[35.186676,31.9862723],[35.1866057,31.9861132],[35.1865656,31.9859972],[35.1866332,31.9858021],[35.1866905,31.9856543],[35.1868518,31.9855067],[35.1869668,31.9854258],[35.1871519,31.9853273],[35.1868792,31.985109],[35.1865594,31.9848362],[35.1864275,31.9846749],[35.1862808,31.9845154],[35.1861337,31.9843522],[35.1859516,31.9841931],[35.1857286,31.9839895],[35.1857923,31.9838415],[35.1859352,31.9835904],[35.1858734,31.9833894],[35.1857039,31.9829017],[35.1856227,31.9826508],[35.1858954,31.9824928],[35.1861884,31.9823199],[35.186169,31.9822801],[35.1861166,31.9822349],[35.1860921,31.9821726],[35.1860552,31.9821392],[35.186049,31.9820796],[35.1860569,31.9820195],[35.1860236,31.9819494],[35.1859955,31.9819115],[35.1859479,31.9818849],[35.1858903,31.981854],[35.1857979,31.9818847],[35.1857074,31.9819037],[35.1856278,31.9818949],[35.1855545,31.9818503],[35.1854979,31.9818253],[35.18539,31.981803],[35.1852822,31.9818032],[35.1852278,31.9818282],[35.1851238,31.9818541],[35.1851394,31.9819068],[35.1851329,31.9819469],[35.1851294,31.981994],[35.1851462,31.9820451],[35.1851497,31.9821395],[35.1851479,31.9822594],[35.1850468,31.9822508],[35.1849588,31.9822314],[35.1848982,31.982225],[35.1848251,31.9822352],[35.1847296,31.9822242],[35.1846296,31.982215],[35.184596,31.9821654],[35.1845959,31.9820947],[35.1846035,31.9820161],[35.1845855,31.9819458],[35.1845595,31.9818936],[35.1845451,31.98182],[35.1845223,31.9817393],[35.1845128,31.981681],[35.183968,31.9818458],[35.1833219,31.9815942],[35.1825769,31.9817978],[35.1813244,31.9824049],[35.1810053,31.9819334],[35.1809068,31.9817734],[35.1808617,31.9817023],[35.1808245,31.9816427],[35.1807888,31.9815807],[35.180716,31.9814655],[35.1806541,31.9813815],[35.1807626,31.9812891],[35.1808774,31.9811871],[35.1809585,31.9811004],[35.1810562,31.9810036],[35.1811367,31.9809232],[35.1812142,31.9808525],[35.1813415,31.9807419],[35.1814141,31.9806873],[35.1814662,31.9806464],[35.1815163,31.9806036],[35.1816011,31.9805326],[35.1817771,31.9804155],[35.1818216,31.9803727],[35.1818616,31.9803342],[35.1820578,31.9802145],[35.1818471,31.980024],[35.1815146,31.9796957],[35.181255,31.9797995],[35.1807598,31.9799687],[35.1807067,31.9799951],[35.1805993,31.9800787],[35.1805538,31.9801397],[35.1804861,31.9801831],[35.1803789,31.9802291],[35.1803076,31.9802435],[35.1802604,31.9802636],[35.1802224,31.9802923],[35.180174,31.9803227],[35.1801046,31.9803631],[35.1799511,31.980428],[35.1796631,31.9805504],[35.1794344,31.9808365],[35.1791871,31.9808595],[35.1789411,31.9809321],[35.1787341,31.9810001],[35.1784996,31.9810643],[35.1786082,31.9812079],[35.1786431,31.9812573],[35.1781851,31.981416],[35.1780453,31.9812865],[35.1777726,31.9813884],[35.1777095,31.9814074],[35.1775975,31.9814608],[35.1774403,31.9815322],[35.1773614,31.9815684],[35.1773336,31.9812785],[35.1773545,31.9812159],[35.1773794,31.9811582],[35.1773894,31.9810995],[35.1773771,31.9810327],[35.1773442,31.9809295],[35.177382,31.9807975],[35.1774511,31.9805583],[35.1772375,31.9801656],[35.1770632,31.9798281],[35.1770859,31.9796097],[35.1765067,31.9798114],[35.1763989,31.9798384],[35.1763272,31.9797823],[35.1761523,31.9798936],[35.1760445,31.9799699],[35.1758791,31.9800902],[35.1753561,31.9799698],[35.1752213,31.9797175],[35.1751991,31.9796451],[35.1750952,31.9794324],[35.1753229,31.9793294],[35.1752948,31.9792814],[35.1752403,31.9791025],[35.1751291,31.9788371],[35.175315,31.9787184],[35.1754263,31.9785225],[35.1755776,31.9783194],[35.1756496,31.9782196],[35.1756174,31.9781438],[35.175541,31.9780194],[35.1754539,31.9779113],[35.1753525,31.9777912],[35.1752659,31.9777175],[35.1751662,31.9776369],[35.1752276,31.9775557],[35.1752884,31.9775274],[35.1753484,31.9775076],[35.175403,31.9774553],[35.1754654,31.977402],[35.1755412,31.9773582],[35.1755998,31.9773094],[35.1756849,31.9772495],[35.17576,31.9771844],[35.1757972,31.9771345],[35.1758379,31.9770831],[35.1759475,31.9769724],[35.1760382,31.9768962],[35.176118,31.9768297],[35.1762096,31.976753],[35.1763123,31.9766834],[35.1764667,31.9765697],[35.1765338,31.976512],[35.1765906,31.9764771],[35.1766737,31.9764434],[35.1767303,31.9764122],[35.1767849,31.9763768],[35.1768422,31.9763364],[35.1769194,31.9762659],[35.1770051,31.9761462],[35.1771143,31.9759802],[35.1771401,31.9759297],[35.1771958,31.9758016],[35.1772378,31.9757314],[35.1772988,31.9756472],[35.1774379,31.9756059],[35.177532,31.9755803],[35.1776553,31.9755554],[35.1778074,31.9754838],[35.1778993,31.9754082],[35.1780182,31.9753153],[35.1781159,31.9752472],[35.1782631,31.9751243],[35.1783917,31.9750071],[35.1784516,31.9749574],[35.1785196,31.9748917],[35.1786264,31.9748496],[35.1786011,31.9747958],[35.1786897,31.9747671],[35.1787909,31.9747564],[35.178913,31.9747636],[35.1791112,31.9747852],[35.179204,31.974778],[35.179423,31.974735],[35.1794585,31.9743018],[35.1794834,31.9739749],[35.1793522,31.9739209],[35.179153,31.9738573],[35.179048,31.9737887],[35.1789507,31.9737174],[35.1787945,31.9735959],[35.1787267,31.9735516],[35.1785818,31.9733666],[35.1785045,31.9732671],[35.1784683,31.973217],[35.1785202,31.9731631],[35.1783666,31.972876],[35.1783458,31.9728264],[35.1782599,31.972706],[35.178192,31.97247],[35.1781761,31.9724035],[35.1781649,31.9723338],[35.1781648,31.9721981],[35.1781656,31.9721244],[35.1781382,31.9720108],[35.1780989,31.971874],[35.1780641,31.9717333],[35.1780443,31.9716051],[35.17805,31.9714787],[35.1780243,31.9713368],[35.1780087,31.9711864],[35.1779697,31.9710951],[35.1779077,31.9710205],[35.1778158,31.9710211],[35.1777431,31.9708654],[35.1777198,31.9707802],[35.1777048,31.9707139],[35.1776949,31.9706357],[35.1776635,31.9705857],[35.1775821,31.9705147],[35.1775465,31.9704513],[35.1775606,31.9703822],[35.1775681,31.9703129],[35.1777521,31.9702152],[35.1778129,31.9702054],[35.1778559,31.9701929],[35.1779209,31.9701956],[35.1779852,31.9701838],[35.178077,31.9701697],[35.1781347,31.9701322],[35.1781908,31.970111],[35.1782387,31.970114],[35.1783236,31.9701067],[35.1784103,31.9700799],[35.178488,31.9700628],[35.1785527,31.9700569],[35.1785236,31.9700083],[35.1784886,31.969934],[35.1784479,31.9698625],[35.1783343,31.9698698],[35.1782614,31.9698966],[35.1781507,31.9699134],[35.1780529,31.9699016],[35.1779767,31.9698327],[35.1779154,31.969762],[35.1778987,31.9696701],[35.1778546,31.9695393],[35.1778257,31.9694482],[35.1778135,31.9693791],[35.1777945,31.9693201],[35.1777749,31.9692529],[35.1777362,31.9691618],[35.1777149,31.969112],[35.1777129,31.9690384],[35.1776976,31.9689526],[35.177676,31.9688237],[35.1777335,31.9688051],[35.1778092,31.9687855],[35.1778742,31.9687582],[35.1779961,31.9688256],[35.1780631,31.9688188],[35.178161,31.9688001],[35.1782408,31.9687924],[35.1783107,31.9687835],[35.1783717,31.968767],[35.1784846,31.9687394],[35.1785542,31.9687184],[35.1786708,31.968693],[35.1787209,31.968656],[35.1787303,31.9685863],[35.1787442,31.9685334],[35.1788716,31.968497],[35.1789599,31.9684793],[35.1790698,31.9684924],[35.1791267,31.9685216],[35.1792265,31.9685348],[35.1793908,31.9685331],[35.1794902,31.968528],[35.179651,31.968527],[35.179658,31.9684354],[35.1796692,31.9683105],[35.1796919,31.9681463],[35.1797229,31.9680768],[35.1797999,31.9679475],[35.1799108,31.9677543],[35.1799174,31.9676899],[35.1798924,31.9676351],[35.1798491,31.9675892],[35.1797998,31.9675291],[35.1797372,31.9675087],[35.1796977,31.9674609],[35.1796497,31.967421],[35.179592,31.9673703],[35.1795146,31.9673273],[35.1794631,31.9672731],[35.1793902,31.9672148],[35.1793146,31.9671662],[35.179222,31.9671055],[35.1792987,31.967019],[35.1795451,31.9668393],[35.1794231,31.9666446],[35.1793383,31.9665164],[35.1791734,31.9662855],[35.1791189,31.9661955],[35.1790614,31.9660523],[35.1789527,31.9658027],[35.1789135,31.9655196],[35.1788922,31.9652937],[35.1788531,31.9649695],[35.1787957,31.9647946],[35.1787443,31.9646358],[35.1785388,31.9641854],[35.1784997,31.9640862],[35.1783155,31.9636129],[35.1781113,31.9636929],[35.1777032,31.9638292],[35.1776422,31.9637331],[35.177423,31.9638049],[35.1772215,31.9638791],[35.1770858,31.9639328],[35.1768314,31.9640467],[35.176643,31.9638979],[35.1765278,31.9638219],[35.1764452,31.9638602],[35.1763527,31.9639194],[35.176245,31.9639667],[35.1761495,31.9637959],[35.1760656,31.9636091],[35.1760202,31.963483],[35.1759964,31.9633672],[35.1759796,31.9633163],[35.1759439,31.9632349],[35.1758315,31.9632389],[35.1758077,31.9631523],[35.1757481,31.963008],[35.1758699,31.9629347],[35.176126,31.9627588],[35.1763962,31.9625797],[35.1763691,31.9624567],[35.1762982,31.9623723],[35.1763318,31.9620834],[35.1763392,31.961994],[35.1765494,31.9618821],[35.176582,31.9618483],[35.1767513,31.9615881],[35.1770716,31.9610597],[35.1770558,31.9609823],[35.176909,31.9603978],[35.1766433,31.9603798],[35.1764226,31.9599532],[35.1760947,31.9593139],[35.1763453,31.9592156],[35.1766888,31.9590673],[35.1766259,31.9589572],[35.1763597,31.9584363],[35.1761194,31.9580324],[35.1758298,31.9575771],[35.175729,31.9574008],[35.1756577,31.9572637],[35.1756271,31.9571887],[35.1755981,31.9570933],[35.1755862,31.9570224],[35.1755765,31.9569177],[35.1755942,31.9567431],[35.1756207,31.9565277],[35.1756565,31.9564125],[35.1757013,31.9563479],[35.1757902,31.9562661],[35.175917,31.956183],[35.1760238,31.95612],[35.1765787,31.9558814],[35.1767934,31.955792],[35.1770587,31.9556796],[35.1772519,31.9555824],[35.1773801,31.955506],[35.1774313,31.955473],[35.177531,31.955409],[35.1775992,31.9553959],[35.1776862,31.9553691],[35.177852,31.9552981],[35.1779953,31.9552327],[35.1780099,31.9551874],[35.178028,31.9551308],[35.1781045,31.954903],[35.1782558,31.954412],[35.1779764,31.9540892],[35.1778674,31.9539623],[35.1777565,31.9538333],[35.178011,31.953624],[35.1781882,31.9534766],[35.1783646,31.95333],[35.1786025,31.9529524],[35.1791202,31.9521624],[35.1791679,31.9520896],[35.1794584,31.9522608],[35.1800991,31.9526162],[35.1805124,31.9528478],[35.1803874,31.9530928],[35.180713,31.9532895],[35.1811194,31.9536011],[35.1815408,31.9539644],[35.1816226,31.9540315],[35.1819193,31.9537758],[35.1819847,31.9538854],[35.1820261,31.9539711],[35.1820636,31.9540183],[35.1821005,31.9541439],[35.182171,31.9542259],[35.1822244,31.9543133],[35.1823231,31.9544429],[35.1824041,31.9545337],[35.1824898,31.9546048],[35.1825056,31.9546273],[35.1828056,31.9548341],[35.1828787,31.9549228],[35.1829798,31.9549247],[35.183207,31.9552106],[35.1835932,31.9556156],[35.1837515,31.9557886],[35.1838798,31.9559012],[35.1841466,31.9560576],[35.1842803,31.9561291],[35.1842737,31.9557531],[35.1844484,31.9557935],[35.184496,31.9558045],[35.1849312,31.9559181],[35.1855531,31.9560991],[35.1858426,31.9560873],[35.1859452,31.9560735],[35.1860713,31.9560799],[35.186158,31.9560991],[35.1862885,31.9561152],[35.1863739,31.95625],[35.1864304,31.9563301],[35.1865058,31.9564567],[35.186538,31.9565638],[35.1865681,31.9566232],[35.1865945,31.9566793],[35.18662,31.9567634],[35.1867033,31.9569402],[35.1868404,31.9569311],[35.1869792,31.9569065],[35.1871648,31.9568727],[35.1872549,31.9568527],[35.1871998,31.9567206],[35.1873088,31.9566822],[35.1874234,31.9566472],[35.1876343,31.9565658],[35.1877207,31.956532],[35.1878217,31.9565043],[35.187946,31.956472],[35.1880217,31.9564489],[35.1881575,31.9564361],[35.1882784,31.9564239],[35.188419,31.956413],[35.1885109,31.9564098],[35.1885976,31.9565893],[35.1886971,31.9568144],[35.1889536,31.9567165],[35.1891232,31.956647],[35.1892264,31.9566356],[35.1894401,31.9565462],[35.1897635,31.9563908],[35.1899195,31.956369],[35.1899054,31.956242],[35.1898758,31.9561332],[35.1898502,31.9560254],[35.1898322,31.9559317],[35.189764,31.9557369],[35.1897281,31.9556475],[35.1896501,31.9554882],[35.1900003,31.9554751],[35.1900596,31.9549956],[35.1900937,31.9549231],[35.1906418,31.9550134],[35.1907123,31.954782],[35.19079,31.9547887],[35.1911127,31.9548284],[35.1913206,31.9548533],[35.1913653,31.9547573],[35.1914606,31.9545875],[35.1916676,31.954657],[35.1917357,31.9545494],[35.1918337,31.9544039],[35.191894,31.9544237],[35.1922458,31.9545272],[35.1924887,31.9546092],[35.1926093,31.9544421],[35.1929256,31.954029],[35.1930092,31.9540456],[35.193085,31.9540804],[35.1931374,31.9541168],[35.1932035,31.954173],[35.1934019,31.953958],[35.1938753,31.9534388],[35.1940753,31.9532123],[35.1941568,31.9531355],[35.1942143,31.95307],[35.1942569,31.9530138],[35.1943037,31.9529675],[35.1943961,31.952868],[35.1942297,31.9527309],[35.1940798,31.952594],[35.193917,31.9524735],[35.1939721,31.9523907],[35.194023,31.9523067],[35.1940164,31.9522321],[35.1940412,31.9521113],[35.1940557,31.9519685],[35.1940678,31.9519181],[35.1940787,31.9518348],[35.1940858,31.9517169],[35.1941149,31.9516274],[35.1941417,31.9515735],[35.1942127,31.9514337],[35.194239,31.9512776],[35.1943411,31.9512847],[35.1944534,31.9513187],[35.1945465,31.9513398],[35.1946769,31.9514216],[35.1947383,31.9514585],[35.1949424,31.9515644],[35.1948891,31.9516374],[35.1948747,31.9517033],[35.1948406,31.9517512],[35.1947814,31.9518036],[35.1947036,31.9519075],[35.1947646,31.9519723],[35.1948495,31.952032],[35.1949135,31.9520844],[35.1950379,31.9521904],[35.195085,31.9522244],[35.1951648,31.9522676],[35.1952493,31.9522588],[35.195472,31.952375],[35.1956342,31.952469],[35.1957308,31.952523],[35.1958589,31.9525997],[35.1959055,31.9526365],[35.1959936,31.9527095],[35.1960939,31.9528174],[35.196135,31.9528576],[35.1960608,31.9529021],[35.1959164,31.9530231],[35.1958494,31.9530944],[35.1957741,31.9531888],[35.1956714,31.9533359],[35.1955689,31.9535024],[35.1955876,31.9535942],[35.1956294,31.9536882],[35.1955876,31.9537434],[35.1955081,31.9538182],[35.1952443,31.9539287],[35.1950521,31.9540262],[35.1951117,31.9542995],[35.1952668,31.9548439],[35.1954928,31.95495],[35.1957612,31.9550926],[35.1958114,31.9551611],[35.1958993,31.9552858],[35.1960482,31.9554958],[35.1959646,31.9555475],[35.1954874,31.9558307],[35.1948991,31.9562037],[35.1949608,31.9562687],[35.1950195,31.9563096],[35.1950801,31.9563452],[35.1951753,31.9564388],[35.1952893,31.9564112],[35.1955948,31.956315],[35.195804,31.9562224],[35.1960065,31.9561366],[35.1963643,31.955979],[35.1964438,31.9559924],[35.1965045,31.956028],[35.196563,31.9560655],[35.1965504,31.9561438],[35.1965211,31.9562881],[35.1964364,31.9563118],[35.1961615,31.9563968],[35.1958795,31.9564827],[35.1959217,31.9566261],[35.1957688,31.9566695],[35.1958109,31.9567393],[35.1958607,31.9567808],[35.1961301,31.9567337],[35.1962896,31.9567035],[35.1962852,31.9568034],[35.1962571,31.9568595],[35.1962371,31.9569218],[35.1962239,31.9569765],[35.1962084,31.9570576],[35.1961717,31.9572073],[35.1961705,31.9573042],[35.1961107,31.9573231],[35.1960864,31.9574269],[35.1960687,31.9575439],[35.1960812,31.9576398],[35.1959797,31.9576541],[35.1960033,31.957718],[35.1960034,31.9577974],[35.1959924,31.9578799],[35.1960033,31.9579593],[35.1960015,31.9580206],[35.1959589,31.9581262],[35.1958867,31.9581471],[35.1958651,31.958207],[35.1958458,31.9582743],[35.1958522,31.9584196],[35.1958686,31.9585392],[35.1958203,31.9585957],[35.1957287,31.9586669],[35.1956131,31.9587798],[35.1954977,31.9588461],[35.1953168,31.9589211],[35.1952743,31.958979],[35.1953024,31.9590476],[35.1953137,31.959167],[35.1953275,31.9593176],[35.1953361,31.9594228],[35.1953437,31.9594847],[35.1953437,31.9596181],[35.1953462,31.9596744],[35.1953637,31.9597374],[35.1954454,31.9597427],[35.1955362,31.9597492],[35.1955481,31.9599135],[35.1955382,31.9600661],[35.1956461,31.9600703],[35.1957288,31.9600725],[35.1958041,31.9600468],[35.1958731,31.9600437],[35.1960937,31.9600489],[35.196083,31.9601232],[35.1960691,31.9601935],[35.1960623,31.9602571],[35.1960365,31.9603636],[35.195916,31.960373],[35.1957649,31.9603657],[35.195504,31.9603681],[35.195503,31.9605098],[35.1955137,31.9606287],[35.1955646,31.9606712],[35.1956292,31.9607063],[35.1956899,31.9607295],[35.1958082,31.9607571],[35.1959717,31.9607629],[35.1960617,31.9607629],[35.196044,31.9609112],[35.1959945,31.9613185],[35.1960618,31.9613246],[35.196195,31.96133],[35.1963003,31.9613343],[35.1965257,31.9613457],[35.1966401,31.9613513],[35.1967813,31.9613536],[35.1969887,31.9613577],[35.1972604,31.9613649],[35.1973624,31.9613562],[35.1974425,31.9613489],[35.1975236,31.9613409],[35.1976025,31.9613298],[35.197945,31.961242],[35.198058,31.9612134],[35.1982998,31.9611527],[35.1986878,31.961153],[35.1988119,31.9611526],[35.1989644,31.961152],[35.1991153,31.9611513],[35.1999234,31.9611512],[35.2001393,31.9611521],[35.2001412,31.9612096],[35.2001338,31.9615004],[35.2001368,31.9615689],[35.2003286,31.9615861],[35.2004059,31.9615777],[35.2004869,31.9615581],[35.2005439,31.9615328],[35.2006113,31.9615024],[35.2007048,31.9614763],[35.2007655,31.9614769],[35.2008045,31.9615128],[35.2008158,31.9615581],[35.2008237,31.9616205],[35.2008617,31.9616939],[35.2009022,31.9617825],[35.2009292,31.9618721],[35.2009843,31.9619487],[35.2010742,31.9619643],[35.2011031,31.9620238],[35.201121,31.9620789],[35.2011464,31.9621698],[35.2011587,31.962264],[35.201284,31.9622642],[35.2014851,31.9622305],[35.2016296,31.9622078],[35.2017444,31.9621901],[35.2019173,31.9621682],[35.2019505,31.962191],[35.2019952,31.9622875],[35.2019274,31.9623142],[35.2018191,31.9623533],[35.2016875,31.9623955],[35.2016935,31.9625619],[35.2017009,31.9626901],[35.2017388,31.9627543],[35.2018294,31.9628992],[35.2019409,31.9630533],[35.2021507,31.9630127],[35.2022797,31.962987],[35.2026013,31.9629113],[35.2027174,31.9628917],[35.2027882,31.9628787],[35.2028523,31.9628682],[35.2030503,31.9628298],[35.2033678,31.9627224],[35.2034027,31.962776],[35.2035145,31.9629768],[35.2035799,31.9630884],[35.2036354,31.9631855],[35.2036801,31.9632647],[35.2037383,31.9633786],[35.2037024,31.9634302],[35.2037409,31.9635086],[35.2038343,31.9636688],[35.2038811,31.9637479],[35.2039648,31.963895],[35.2040116,31.9639787],[35.2040817,31.9640537],[35.2041359,31.9640166],[35.2041874,31.9639668],[35.2042357,31.9638694],[35.2043137,31.9637957],[35.2044025,31.9637396],[35.2044707,31.9637115],[35.2045129,31.9637959],[35.2045623,31.9639027],[35.2045834,31.9639577],[35.2045975,31.9640101],[35.2046117,31.9641179],[35.2046472,31.9642234],[35.2046589,31.9643103],[35.204653,31.9643954],[35.2046529,31.9644761],[35.2046752,31.9645403],[35.2047293,31.9646234],[35.20478,31.9646651],[35.2048933,31.9647515],[35.2051062,31.9645483],[35.2052981,31.9643605],[35.2053267,31.9644336],[35.2054585,31.9647312],[35.2053813,31.9647653],[35.2053373,31.9648287],[35.2052712,31.9649011],[35.2051748,31.9649929],[35.20519,31.9650595],[35.2052164,31.9651268],[35.2052618,31.9652437],[35.2053224,31.9652979],[35.2053447,31.9653478],[35.2054581,31.9655227],[35.2055386,31.9655149],[35.2057548,31.9654766],[35.2058133,31.9654612],[35.2059687,31.9654728],[35.2061264,31.9655015],[35.2062907,31.9655379],[35.2064393,31.9655456],[35.2066443,31.9656051],[35.2067072,31.9655647],[35.2067861,31.9656243],[35.2068462,31.9656655],[35.2068801,31.9657154],[35.2069229,31.9657738],[35.206977,31.9658284],[35.2070264,31.9658993],[35.207076,31.965955],[35.2071098,31.9660277],[35.2071616,31.9660871],[35.2071934,31.9661443],[35.2072665,31.9661817],[35.2072778,31.966268],[35.2072091,31.9663302],[35.2071393,31.9663781],[35.2070425,31.9664491],[35.2070446,31.9665104],[35.2070673,31.9666017],[35.2070762,31.9667187],[35.2070807,31.9668029],[35.207333,31.9667991],[35.2075648,31.9667359],[35.2076707,31.9667435],[35.2078306,31.9667991],[35.208022,31.9668374],[35.2081106,31.9668768],[35.2081655,31.9668703],[35.2082646,31.9668061],[35.2083479,31.9667456],[35.2084256,31.9666642],[35.208479,31.9666296],[35.2085196,31.9665903],[35.2085691,31.9665203],[35.2086728,31.9665587],[35.2086975,31.9666142],[35.208747,31.9666871],[35.2088024,31.9667815],[35.2088463,31.9668855],[35.2089409,31.9669776],[35.2089273,31.9671942],[35.2089184,31.9672968],[35.209004,31.9672642],[35.2090715,31.9672277],[35.2092359,31.967199],[35.209452,31.9671492],[35.2096277,31.9671185],[35.2096907,31.9671089],[35.2098528,31.9670706],[35.2099851,31.9670378],[35.2100939,31.9669869],[35.2101315,31.9670724],[35.2101812,31.967156],[35.2102037,31.9672302],[35.2102139,31.9673075],[35.2102667,31.9674326],[35.2102712,31.9674899],[35.2102487,31.9675433],[35.2102352,31.9676634],[35.2102127,31.9679021],[35.210298,31.9678925],[35.2104101,31.9678925],[35.2105582,31.9679021],[35.2106762,31.9678975],[35.2108872,31.9678899],[35.2109388,31.9679205],[35.2112147,31.9678097],[35.2112394,31.9679702],[35.211689,31.9680225],[35.2118976,31.9679691],[35.212826,31.9677567],[35.2130302,31.9678254],[35.2131581,31.967833],[35.2133646,31.9678444],[35.2134408,31.9678444],[35.213709,31.9679323],[35.2138953,31.9679227],[35.2141815,31.9679117],[35.2143212,31.9679348],[35.2144817,31.9686722],[35.2145083,31.9687657],[35.214524,31.9688567],[35.2146973,31.9689199],[35.2147145,31.9691338],[35.2147239,31.9692566],[35.2147421,31.9693362],[35.214764,31.9694324],[35.2147869,31.9694888],[35.2147932,31.9695436],[35.2148152,31.9695997],[35.2148474,31.9696752],[35.2148529,31.9697468],[35.2148796,31.9698565],[35.2149252,31.9700472],[35.2149414,31.970097],[35.2150193,31.9703836],[35.2150424,31.970469],[35.2150977,31.9705553],[35.2151035,31.9706268],[35.2150831,31.9706984],[35.2150658,31.9707675],[35.2150483,31.9708538],[35.2150162,31.9709265],[35.2149901,31.9709833],[35.2149351,31.9710721],[35.2148742,31.9711166],[35.2147524,31.9711893],[35.214677,31.9712375],[35.214622,31.9712744],[35.2145032,31.9713214],[35.2144357,31.9713648],[35.214285,31.9714388],[35.2141937,31.9715055],[35.2141035,31.9715548],[35.2140822,31.9716141],[35.2140646,31.9716782],[35.2140475,31.9717727],[35.2140156,31.971869],[35.2139954,31.9720244],[35.2139867,31.9720812],[35.2139094,31.972194],[35.2139105,31.9723266],[35.2139307,31.9724698],[35.2139393,31.9725746],[35.213954,31.9726376],[35.2139565,31.9727102],[35.2139391,31.9727942],[35.213797,31.9728238],[35.2135159,31.9728941],[35.213516,31.9730888],[35.2135246,31.9732468],[35.2135362,31.9733554],[35.2136671,31.9735741],[35.2138179,31.9738086],[35.2139569,31.9739985],[35.2140069,31.9740537],[35.2141664,31.9742535],[35.2142069,31.9743251],[35.214323,31.9745028],[35.2144278,31.9746624],[35.2145582,31.9748498],[35.2146422,31.9749658],[35.2147209,31.9750436],[35.2148631,31.975194],[35.2150341,31.9753569],[35.2151303,31.9754441],[35.2151708,31.9754934],[35.2152318,31.9755378],[35.2152926,31.9755798],[35.215452,31.9757352],[35.2155042,31.9757945],[35.2156643,31.975959],[35.2157716,31.9760749],[35.2156759,31.9761514],[35.2156266,31.9761934],[35.2158534,31.9763822],[35.2159201,31.9764389],[35.2160188,31.9764907],[35.2161057,31.9765351],[35.2163962,31.9766739],[35.2165789,31.9767676],[35.2167151,31.9768539],[35.2167852,31.9768986],[35.2169013,31.9769307],[35.2172086,31.9770145],[35.2173737,31.9770639],[35.2175016,31.9772678],[35.2176204,31.9774873],[35.217722,31.9776354],[35.2177974,31.9777514],[35.2178518,31.9777784],[35.2179215,31.977873],[35.2180618,31.9780738],[35.2181153,31.9781455],[35.2181691,31.9782042],[35.2183157,31.9783568],[35.2185969,31.9785483],[35.2187145,31.9786287],[35.2189684,31.9787727],[35.2192565,31.9789334],[35.2193428,31.9789804],[35.2194691,31.979028],[35.2198842,31.9791825],[35.2200313,31.9792379],[35.2202129,31.9793065],[35.2202628,31.9792187],[35.2203578,31.9792428],[35.2208154,31.9793516],[35.221176,31.9794374],[35.2213291,31.9794729],[35.2215612,31.9795668],[35.2219828,31.9797288],[35.2221938,31.9798156],[35.2221859,31.9799034],[35.2221656,31.9801315],[35.2221466,31.9803064],[35.2221061,31.9805469],[35.2220893,31.9806667],[35.222051,31.9809195],[35.2219559,31.980998],[35.2218644,31.9810734],[35.2218143,31.9811123],[35.2218004,31.9812187],[35.221664,31.9812039],[35.2214918,31.9811853],[35.2214346,31.9812775],[35.2213432,31.9814061],[35.2213081,31.9814536],[35.2212435,31.9815456],[35.2211369,31.9816947],[35.2210919,31.9817603],[35.2211682,31.9818709],[35.2210938,31.9819417],[35.2209867,31.9820459],[35.2209245,31.9821052],[35.2208044,31.9822194],[35.2207062,31.9823125],[35.2206326,31.9823857],[35.2205562,31.9822858],[35.2204237,31.9823534],[35.2203258,31.9824139],[35.2201684,31.9825076],[35.2200921,31.9825684],[35.2200397,31.9826125],[35.2198854,31.9826972],[35.21975,31.9827623],[35.2196292,31.9828213],[35.2195046,31.9828821],[35.2193763,31.9829134],[35.2192582,31.9829414],[35.2192655,31.9830897],[35.2192692,31.9832218],[35.2192765,31.9835214],[35.2192831,31.9836781],[35.2192785,31.9837749],[35.2192779,31.9838549],[35.2192663,31.9839186],[35.2192468,31.9839925],[35.2192192,31.9841012],[35.2191762,31.9841657],[35.2191449,31.9842399],[35.2190966,31.9843156],[35.21905,31.984385],[35.2190021,31.9844365],[35.218942,31.9844855],[35.2188493,31.984533],[35.2187916,31.9845731],[35.2187308,31.9846298],[35.2186384,31.984674],[35.2185073,31.9847372],[35.2184243,31.9847751],[35.218343,31.9848145],[35.2181173,31.9849193],[35.2179796,31.9849658],[35.2178354,31.9850186],[35.2176048,31.9851069],[35.2173762,31.9851895],[35.2171885,31.9852599],[35.2170748,31.9853013],[35.2169077,31.9853274],[35.2165682,31.9853855],[35.2161788,31.9854486],[35.2158836,31.9854985],[35.2156987,31.9855291],[35.2156033,31.9855449],[35.2153568,31.9855838],[35.2152204,31.9856075],[35.2152167,31.9856918],[35.2152435,31.9858623],[35.2152597,31.9859143],[35.215284,31.985977],[35.2153067,31.9860719],[35.2153262,31.9861771],[35.2153526,31.986286],[35.2154069,31.9863641],[35.2154523,31.9864235],[35.2154967,31.9864411],[35.2155272,31.9864869],[35.2155315,31.9865527],[35.2155356,31.9866126],[35.2155197,31.9866685],[35.215609,31.9866789],[35.2158722,31.9867122],[35.215944,31.9867198],[35.2160557,31.9867234],[35.2163008,31.986731],[35.2164968,31.9867354],[35.2166928,31.9867394],[35.2168149,31.9867427],[35.2169107,31.9867427],[35.2171813,31.9867507],[35.2173084,31.9867446],[35.2174369,31.9867385],[35.217549,31.9867326],[35.2176932,31.9867231],[35.2178436,31.9867152],[35.2179071,31.9867199],[35.2180246,31.9867192],[35.2181936,31.9867245],[35.2183669,31.9867284],[35.218576,31.986733],[35.2185517,31.9868693],[35.218526,31.9869874],[35.2184777,31.9872202],[35.2184331,31.9874311],[35.2183811,31.9876895],[35.218313,31.9877167],[35.2182417,31.9877348],[35.2181618,31.9877588],[35.2180697,31.9877958],[35.2179583,31.9878459],[35.2178408,31.987902],[35.2177226,31.9879547],[35.2176575,31.9879841],[35.2176011,31.9880095],[35.2175231,31.9880399],[35.2174323,31.9880732],[35.2173358,31.9881003],[35.2173634,31.9881493],[35.2174876,31.9882466],[35.2175446,31.9882624]]]}}]}